
# Worst residual: 281.90 km
# MJD 59187.000000 (2020 Dec  4  0:00)
TESS = 2018-038A = NORAD 43435
1 43435U 18038A   20339.49919926  .00000000  00000-0  00000-0 0 10559
2 43435 006.4415 082.9144 6470469 197.9697 022.7156 00.06037417    04

# Worst residual: 94.10 km
# MJD 59188.000000 (2020 Dec  5  0:00)
TESS = 2018-038A = NORAD 43435
1 43435U 18038A   20340.49919926  .00000000  00000-0  00000-0 0 10551
2 43435 006.4621 082.4787 6270250 196.2378 050.7822 00.06634897    01

# Worst residual: 59.73 km
# MJD 59189.000000 (2020 Dec  6  0:00)
TESS = 2018-038A = NORAD 43435
1 43435U 18038A   20341.49919926  .00000000  00000-0  00000-0 0 10552
2 43435 006.4533 082.8902 6228709 194.6074 077.7155 00.06831963    04

# Worst residual: 35.91 km
# MJD 59190.000000 (2020 Dec  7  0:00)
TESS = 2018-038A = NORAD 43435
1 43435U 18038A   20342.49919926  .00000000  00000-0  00000-0 0 10553
2 43435 006.4208 083.3055 6236842 193.3979 104.0978 00.06926464    03

# Worst residual: 18.47 km
# MJD 59191.000000 (2020 Dec  8  0:00)
TESS = 2018-038A = NORAD 43435
1 43435U 18038A   20343.49919926  .00000000  00000-0  00000-0 0 10554
2 43435 006.4207 083.5361 6265370 192.6984 129.9992 00.06978177    00

# Worst residual: 12.54 km
# MJD 59192.000000 (2020 Dec  9  0:00)
TESS = 2018-038A = NORAD 43435
1 43435U 18038A   20344.49919926  .00000000  00000-0  00000-0 0 10555
2 43435 006.4739 083.6634 6295625 192.3584 155.5312 00.07007474    08

# Worst residual: 7.67 km
# MJD 59193.000000 (2020 Dec 10  0:00)
TESS = 2018-038A = NORAD 43435
1 43435U 18038A   20345.49919926  .00000000  00000-0  00000-0 0 10556
2 43435 006.5604 083.7780 6317082 192.1751 180.9048 00.07023429    05

# Worst residual: 9.68 km
# MJD 59194.000000 (2020 Dec 11  0:00)
TESS = 2018-038A = NORAD 43435
1 43435U 18038A   20346.49919926  .00000000  00000-0  00000-0 0 10557
2 43435 006.6432 083.8634 6330258 192.0466 206.3519 00.07030707    09

# Worst residual: 17.56 km
# MJD 59195.000000 (2020 Dec 12  0:00)
TESS = 2018-038A = NORAD 43435
1 43435U 18038A   20347.49919926  .00000000  00000-0  00000-0 0 10558
2 43435 006.6912 083.7947 6342254 192.0239 232.0376 00.07029364    09

# Worst residual: 25.84 km
# MJD 59196.000000 (2020 Dec 13  0:00)
TESS = 2018-038A = NORAD 43435
1 43435U 18038A   20348.49919926  .00000000  00000-0  00000-0 0 10559
2 43435 006.7210 083.5516 6361969 192.1124 258.0177 00.07014091    07

# Worst residual: 41.39 km
# MJD 59197.000000 (2020 Dec 14  0:00)
TESS = 2018-038A = NORAD 43435
1 43435U 18038A   20349.49919926  .00000000  00000-0  00000-0 0 10550
2 43435 006.7766 083.3514 6393958 192.0873 284.2567 00.06967604    02

# Worst residual: 80.25 km
# MJD 59198.000000 (2020 Dec 15  0:00)
TESS = 2018-038A = NORAD 43435
1 43435U 18038A   20350.49919926  .00000000  00000-0  00000-0 0 10552
2 43435 006.8937 083.7114 6445712 191.3048 310.7556 00.06833735    05

# Worst residual: 305.68 km
# MJD 59199.000000 (2020 Dec 16  0:00)
TESS = 2018-038A = NORAD 43435
1 43435U 18038A   20351.49919926  .00000000  00000-0  00000-0 0 10553
2 43435 007.0341 085.3173 6594213 188.7716 337.5532 00.06329665    06

# Worst residual: 919.02 km
# MJD 59200.000000 (2020 Dec 17  0:00)
TESS = 2018-038A = NORAD 43435
1 43435U 18038A   20352.49919926  .00000000  00000-0  00000-0 0 10554
2 43435 006.9978 088.1102 6828451 189.3626 359.0643 00.05807169    05

# Worst residual: 339.11 km
# MJD 59201.000000 (2020 Dec 18  0:00)
TESS = 2018-038A = NORAD 43435
1 43435U 18038A   20353.49919926  .00000000  00000-0  00000-0 0 10555
2 43435 007.1129 085.7511 6615389 195.2967 021.0077 00.06271334    08

# Worst residual: 95.50 km
# MJD 59202.000000 (2020 Dec 19  0:00)
TESS = 2018-038A = NORAD 43435
1 43435U 18038A   20354.49919926  .00000000  00000-0  00000-0 0 10556
2 43435 007.2358 085.4921 6431039 193.4725 049.9583 00.06953007    00

# Worst residual: 51.71 km
# MJD 59203.000000 (2020 Dec 20  0:00)
TESS = 2018-038A = NORAD 43435
1 43435U 18038A   20355.49919926  .00000000  00000-0  00000-0 0 10557
2 43435 007.3005 085.7278 6399721 192.2061 077.6982 00.07143178    01

# Worst residual: 26.22 km
# MJD 59204.000000 (2020 Dec 21  0:00)
TESS = 2018-038A = NORAD 43435
1 43435U 18038A   20356.49919926  .00000000  00000-0  00000-0 0 10558
2 43435 007.3496 085.9509 6395862 191.4958 104.7383 00.07211250    06

# Worst residual: 16.50 km
# MJD 59205.000000 (2020 Dec 22  0:00)
TESS = 2018-038A = NORAD 43435
1 43435U 18038A   20357.49919926  .00000000  00000-0  00000-0 0 10559
2 43435 007.4063 086.1034 6391596 191.1334 131.3654 00.07233888    06

# Worst residual: 14.17 km
# MJD 59206.000000 (2020 Dec 23  0:00)
TESS = 2018-038A = NORAD 43435
1 43435U 18038A   20358.49919926  .00000000  00000-0  00000-0 0 10550
2 43435 007.4510 086.2078 6378072 190.9336 157.7936 00.07234965    07

# Worst residual: 17.75 km
# MJD 59207.000000 (2020 Dec 24  0:00)
TESS = 2018-038A = NORAD 43435
1 43435U 18038A   20359.49919926  .00000000  00000-0  00000-0 0 10551
2 43435 007.4720 086.2320 6355588 190.7934 184.2466 00.07223834    05

# Worst residual: 26.88 km
# MJD 59208.000000 (2020 Dec 25  0:00)
TESS = 2018-038A = NORAD 43435
1 43435U 18038A   20360.49919926  .00000000  00000-0  00000-0 0 10553
2 43435 007.4550 086.0988 6331040 190.7012 210.8783 00.07202785    08

# Worst residual: 36.96 km
# MJD 59209.000000 (2020 Dec 26  0:00)
TESS = 2018-038A = NORAD 43435
1 43435U 18038A   20361.49919926  .00000000  00000-0  00000-0 0 10554
2 43435 007.4223 085.7872 6314029 190.6364 237.7870 00.07168511    03

# Worst residual: 47.62 km
# MJD 59210.000000 (2020 Dec 27  0:00)
TESS = 2018-038A = NORAD 43435
1 43435U 18038A   20362.49919926  .00000000  00000-0  00000-0 0 10555
2 43435 007.4053 085.3819 6314395 190.5203 264.9661 00.07110440    06

# Worst residual: 60.21 km
# MJD 59211.000000 (2020 Dec 28  0:00)
TESS = 2018-038A = NORAD 43435
1 43435U 18038A   20363.49919926  .00000000  00000-0  00000-0 0 10556
2 43435 007.4402 085.1637 6340652 190.0677 292.3530 00.07000542    06

# Worst residual: 131.62 km
# MJD 59212.000000 (2020 Dec 29  0:00)
TESS = 2018-038A = NORAD 43435
1 43435U 18038A   20364.49919926  .00000000  00000-0  00000-0 0 10557
2 43435 007.5236 085.5625 6413344 188.6501 319.9989 00.06737842    04
